{
"type": "FeatureCollection",
"name": "StormSurgeData_DPWH_260427_cleandata",
"crs": { "type": "name", "properties": { "name": "urn:ogc:def:crs:OGC:1.3:CRS84" } },
"features": [
{ "type": "Feature", "properties": { "NewID": 100, "Location": "Brgy. Paratong, Sta. Catalina, Ilocos Sur", "Event": "Mario", "Date": "August 17, 2015", "DMGCost": "10,000,000", "Latitude": 17.586444941, "Longitude": 120.346142289, "DEO": "Ilocos Sur 1st DEO", "Descriptio": null }, "geometry": { "type": "Point", "coordinates": [ 120.346142289288949, 17.586444940958739 ] } },
{ "type": "Feature", "properties": { "NewID": 101, "Location": "Brgy. Fuerte - Centro, Caoayan, Ilocos Sur", "Event": "Ineng", "Date": "August 24, 2015", "DMGCost": "15,000,000", "Latitude": 17.5335664216, "Longitude": 120.368866279, "DEO": "Ilocos Sur 1st DEO", "Descriptio": null }, "geometry": { "type": "Point", "coordinates": [ 120.368866279436787, 17.533566421644842 ] } },
{ "type": "Feature", "properties": { "NewID": 102, "Location": "Brgy. Fuerte, Caoayan, Ilocos Sur", "Event": "Ineng", "Date": "August 24, 2015", "DMGCost": "30,000,000", "Latitude": 17.535881831899999, "Longitude": 120.36549383400001, "DEO": "Ilocos Sur 1st DEO", "Descriptio": null }, "geometry": { "type": "Point", "coordinates": [ 120.365493834102296, 17.535881831874498 ] } },
{ "type": "Feature", "properties": { "NewID": 103, "Location": "Brgy. Solotsolot, San Juan, Ilocos Sur", "Event": "Lawin", "Date": "October 21, 2016", "DMGCost": "15,000,000", "Latitude": 17.7556787304, "Longitude": 120.427269044, "DEO": "Ilocos Sur 1st DEO", "Descriptio": null }, "geometry": { "type": "Point", "coordinates": [ 120.427269044307536, 17.75567873042295 ] } },
{ "type": "Feature", "properties": { "NewID": 104, "Location": "Brgy. Mindoro, Vigan City", "Event": "Ompong", "Date": "September 25, 2018", "DMGCost": "20,000,000", "Latitude": 17.559932997899999, "Longitude": 120.346036751, "DEO": "Ilocos Sur 1st DEO", "Descriptio": null }, "geometry": { "type": "Point", "coordinates": [ 120.346036750739231, 17.559932997902695 ] } },
{ "type": "Feature", "properties": { "NewID": 105, "Location": "Sitio Mindanao, Brgy. Paratong, Sta. Catalina, Ilocos Sur", "Event": "Ompong", "Date": "September 25, 2018", "DMGCost": "2,000,000", "Latitude": 17.5855635902, "Longitude": 120.345967145, "DEO": "Ilocos Sur 1st DEO", "Descriptio": null }, "geometry": { "type": "Point", "coordinates": [ 120.345967145202877, 17.585563590179156 ] } },
{ "type": "Feature", "properties": { "NewID": 106, "Location": "Brgy. Solotsolot, San Juan, Ilocos Sur", "Event": "Ompong", "Date": "September 25, 2018", "DMGCost": "10,500,000", "Latitude": 17.7556787304, "Longitude": 120.427269044, "DEO": "Ilocos Sur 1st DEO", "Descriptio": null }, "geometry": { "type": "Point", "coordinates": [ 120.427269044307536, 17.75567873042295 ] } },
{ "type": "Feature", "properties": { "NewID": 107, "Location": "Subec, Paratong, Sitio Mindanao, Sta. Catalina, Ilocos Sur", "Event": "Paeng", "Date": "November 1, 2022", "DMGCost": "58,400,000", "Latitude": 17.5855635902, "Longitude": 120.345967145, "DEO": "Ilocos Sur 1st DEO", "Descriptio": null }, "geometry": { "type": "Point", "coordinates": [ 120.345967145202877, 17.585563590179156 ] } },
{ "type": "Feature", "properties": { "NewID": 108, "Location": "Brgy. Paratong, Sta. Catalina, Ilocos Sur", "Event": "Egay", "Date": "August 1, 2023", "DMGCost": "5,000,000", "Latitude": 17.586444941, "Longitude": 120.346142289, "DEO": "Ilocos Sur 1st DEO", "Descriptio": null }, "geometry": { "type": "Point", "coordinates": [ 120.346142289288949, 17.586444940958739 ] } },
{ "type": "Feature", "properties": { "NewID": 109, "Location": "Brgy. Paratong - Subec, Sta. Catalina, Ilocos Sur", "Event": "Crising, Dante & Emong", "Date": "August 6, 2025", "DMGCost": "16,125,272.64", "Latitude": 17.5855635902, "Longitude": 120.345967145, "DEO": "Ilocos Sur 1st DEO", "Descriptio": null }, "geometry": { "type": "Point", "coordinates": [ 120.345967145202877, 17.585563590179156 ] } },
{ "type": "Feature", "properties": { "NewID": 110, "Location": "Barangay Quezon, Santa, Ilocos Sur", "Event": "Nando", "Date": "September 2025", "DMGCost": "50,000,000", "Latitude": 17.484377388399999, "Longitude": 120.43328520199999, "DEO": "Ilocos Sur 2nd DEO", "Descriptio": null }, "geometry": { "type": "Point", "coordinates": [ 120.433285202369589, 17.484377388354531 ] } },
{ "type": "Feature", "properties": { "NewID": 111, "Location": "Barangay Rancho, Santa, Ilocos Sur", "Event": "Nando", "Date": "September 2025", "DMGCost": "1,000,000", "Latitude": 17.501794625, "Longitude": 120.407494528, "DEO": "Ilocos Sur 2nd DEO", "Descriptio": null }, "geometry": { "type": "Point", "coordinates": [ 120.407494528079496, 17.501794625024157 ] } },
{ "type": "Feature", "properties": { "NewID": 112, "Location": "Dili, Sta. Cruz, Ilocos Sur", "Event": "Emong", "Date": "July 2025", "DMGCost": "10,000,000", "Latitude": 17.033669404099999, "Longitude": 120.44969132600001, "DEO": "Ilocos Sur 2nd DEO", "Descriptio": null }, "geometry": { "type": "Point", "coordinates": [ 120.449691325637403, 17.033669404066856 ] } },
{ "type": "Feature", "properties": { "NewID": 113, "Location": "Sitio Pantar, Villa Hermosa, Sta. Cruz, Ilocos Sur", "Event": "Emong", "Date": "July 2025", "DMGCost": "15,000,000", "Latitude": 17.0880917428, "Longitude": 120.442284026, "DEO": "Ilocos Sur 2nd DEO", "Descriptio": null }, "geometry": { "type": "Point", "coordinates": [ 120.44228402552568, 17.08809174283645 ] } },
{ "type": "Feature", "properties": { "NewID": 114, "Location": "Capariaan-Villa Garcia, Sta. Cruz, Ilocos Sur", "Event": "Emong", "Date": "July 2025", "DMGCost": "15,000,000", "Latitude": 17.025732325, "Longitude": 120.45047982299999, "DEO": "Ilocos Sur 2nd DEO", "Descriptio": null }, "geometry": { "type": "Point", "coordinates": [ 120.450479823000023, 17.025732325000035 ] } },
{ "type": "Feature", "properties": { "NewID": 115, "Location": "Brgy. Pagudpud, San Fernando City, La Union", "Event": "Uwan", "Date": "November 9, 2025", "DMGCost": "400,000", "Latitude": 16.579770134299999, "Longitude": 120.31541264099999, "DEO": "La Union 1st DEO", "Descriptio": null }, "geometry": { "type": "Point", "coordinates": [ 120.315412640597899, 16.579770134253472 ] } },
{ "type": "Feature", "properties": { "NewID": 116, "Location": "Brgy. Poro, San Fernando City, La Union", "Event": "Uwan", "Date": "November 9, 2025", "DMGCost": "1,440,000", "Latitude": 16.6090604125, "Longitude": 120.28603204700001, "DEO": "La Union 1st DEO", "Descriptio": null }, "geometry": { "type": "Point", "coordinates": [ 120.286032047049432, 16.609060412488617 ] } },
{ "type": "Feature", "properties": { "NewID": 117, "Location": "Brgy. Taboc, San Juan, La Union (aggrevated)", "Event": "Nika, Ofel & Pepito", "Date": "November 18, 2025", "DMGCost": "3,900,000", "Latitude": 16.6898786864, "Longitude": 120.338610805, "DEO": "La Union 1st DEO", "Descriptio": null }, "geometry": { "type": "Point", "coordinates": [ 120.338610804749194, 16.689878686445947 ] } },
{ "type": "Feature", "properties": { "NewID": 118, "Location": "Brgy. Taboc, San Juan, La Union", "Event": "Egay", "Date": "July 29, 2023", "DMGCost": "3,000,000", "Latitude": 16.6898786864, "Longitude": 120.338610805, "DEO": "La Union 1st DEO", "Descriptio": null }, "geometry": { "type": "Point", "coordinates": [ 120.338610804749194, 16.689878686445947 ] } },
{ "type": "Feature", "properties": { "NewID": 119, "Location": "Sabangan Elementary School, Brgy. Sabangan, Binmaley, Pangasinan", "Event": "Uwan", "Date": "November 2025", "DMGCost": "0", "Latitude": 16.057572388299999, "Longitude": 120.303918583, "DEO": "Pangasinan 2nd DEO", "Descriptio": "The cost of damage is zero because the structure has already served its lifespan" }, "geometry": { "type": "Point", "coordinates": [ 120.303918582567434, 16.057572388284036 ] } },
{ "type": "Feature", "properties": { "NewID": 120, "Location": "Access Road Leading to San Fabian Beach at Brgy. Bolasi to Brgy. Mabilao, San Fabian, Pangasinan", "Event": "Uwan", "Date": "November 2025", "DMGCost": "15,615,620", "Latitude": 16.156149478100001, "Longitude": 120.42009805, "DEO": "Pangasinan 2nd DEO", "Descriptio": null }, "geometry": { "type": "Point", "coordinates": [ 120.420098049958398, 16.156149478108254 ] } },
{ "type": "Feature", "properties": { "NewID": 121, "Location": "Limahong Channel River Revetment along Agno River, Pangapisan North, Lingayen, Pangasinan", "Event": "Uwan", "Date": "November 2025", "DMGCost": "18,994,845.54", "Latitude": 16.0381864358, "Longitude": 120.20264473, "DEO": "Pangasinan 2nd DEO", "Descriptio": null }, "geometry": { "type": "Point", "coordinates": [ 120.202644729672912, 16.038186435811387 ] } },
{ "type": "Feature", "properties": { "NewID": 122, "Location": "San Fabian Access Road, Brgy. Nibaliw, Magliba, San Fabian, Pangasinan along Lingayen Gulf", "Event": "Nika, Ofel & Pepito", "Date": "November 2024", "DMGCost": "11,985,423.60", "Latitude": 16.124733736100001, "Longitude": 120.39071539299999, "DEO": "Pangasinan 2nd DEO", "Descriptio": null }, "geometry": { "type": "Point", "coordinates": [ 120.390715392563138, 16.124733736097873 ] } },
{ "type": "Feature", "properties": { "NewID": 123, "Location": "Access Road Leading to Tondaligan Beach, Brgy. Bonuan Binloc, Dagupan City along Lingayen Gulf", "Event": "Nika, Ofel & Pepito", "Date": "November 2024", "DMGCost": "19,994,840.30", "Latitude": 16.1015891391, "Longitude": 120.368335921, "DEO": "Pangasinan 2nd DEO", "Descriptio": null }, "geometry": { "type": "Point", "coordinates": [ 120.368335921494207, 16.101589139149254 ] } },
{ "type": "Feature", "properties": { "NewID": 124, "Location": "Basco-ltbud Diversion Road - Brgy. Itbud, Uyugan, Batanes - Chainage 18a\" 225", "Event": "Nando", "Date": "September 22, 2025", "DMGCost": "1,693,336.86", "Latitude": 20.366862, "Longitude": 121.961837, "DEO": "Batanes DEO", "Descriptio": null }, "geometry": { "type": "Point", "coordinates": [ 121.961837, 20.366862 ] } },
{ "type": "Feature", "properties": { "NewID": 125, "Location": "Basco-Mahatao-Ivana-Uyugan-lmnajbu Road - K0023+680 - K0023+702, Brgy. ltbud, Uyugan, Batanes", "Event": "Nando", "Date": "September 22, 2025", "DMGCost": "1,773,974.91", "Latitude": 20.367127, "Longitude": 121.967742, "DEO": "Batanes DEO", "Descriptio": null }, "geometry": { "type": "Point", "coordinates": [ 121.967742, 20.367127 ] } },
{ "type": "Feature", "properties": { "NewID": 126, "Location": "Basco-Mahatao-Ivana-Uyugan-lmnajbu Road - K0023+832.40 - K0023+850.40, Brgy. ltbud, Uyugan, Batanes", "Event": "Nando", "Date": "September 22, 2025", "DMGCost": "1,607,524.92", "Latitude": 20.367541, "Longitude": 121.962322, "DEO": "Batanes DEO", "Descriptio": null }, "geometry": { "type": "Point", "coordinates": [ 121.962322, 20.367541 ] } },
{ "type": "Feature", "properties": { "NewID": 127, "Location": "Basco-Mahatao-lvana-Uyugan-Imnajbu Road - K0025+867.60 -K0025+877.20, Brgy. Imnajbu, Uyugan, Batanes", "Event": "Nando", "Date": "September 22, 2025", "DMGCost": "1,920,820.90", "Latitude": 20.37786, "Longitude": 121.97001, "DEO": "Batanes DEO", "Descriptio": null }, "geometry": { "type": "Point", "coordinates": [ 121.97001, 20.37786 ] } },
{ "type": "Feature", "properties": { "NewID": 128, "Location": "Basco-Contracosta Road - K0003+191.80 - K0003+214.50, Brgy. San Joaquin, Basco, Batanes", "Event": "Nando", "Date": "September 22, 2025", "DMGCost": "818,101.65", "Latitude": 20.439714, "Longitude": 121.989377, "DEO": "Batanes DEO", "Descriptio": null }, "geometry": { "type": "Point", "coordinates": [ 121.989377, 20.439714 ] } },
{ "type": "Feature", "properties": { "NewID": 129, "Location": "Brgy. Kayvaluganan, Uyugan, Batanes", "Event": "Nando", "Date": "September 22, 2025", "DMGCost": "1,029,937.31", "Latitude": 20.34875, "Longitude": 121.940478, "DEO": "Batanes DEO", "Descriptio": null }, "geometry": { "type": "Point", "coordinates": [ 121.940478, 20.34875 ] } },
{ "type": "Feature", "properties": { "NewID": 130, "Location": "Sabtang Seawall, Brgy. Malakdang, Sabtang, Batanes", "Event": "Nando", "Date": "September 22, 2025", "DMGCost": "2,180,000.00", "Latitude": 20.334399, "Longitude": 121.873556, "DEO": "Batanes DEO", "Descriptio": null }, "geometry": { "type": "Point", "coordinates": [ 121.873556, 20.334399 ] } },
{ "type": "Feature", "properties": { "NewID": 131, "Location": "Boulevard at Brgy. Namuac, Sanchez Mira, Cagayan", "Event": "Uwan", "Date": "November 10, 2025", "DMGCost": "3,000,000.00", "Latitude": 18.62194, "Longitude": 121.16028, "DEO": "Cagayan DEO", "Descriptio": null }, "geometry": { "type": "Point", "coordinates": [ 121.16028, 18.62194 ] } },
{ "type": "Feature", "properties": { "NewID": 132, "Location": "Boulevard at Brgy. Dagueray, Sanchez Mira, Cagayan", "Event": "Lando", "Date": "October 18, 2025", "DMGCost": "5,000,000.00", "Latitude": 18.556579, "Longitude": 121.263327, "DEO": "Cagayan DEO", "Descriptio": null }, "geometry": { "type": "Point", "coordinates": [ 121.263327, 18.556579 ] } },
{ "type": "Feature", "properties": { "NewID": 133, "Location": "Brgy. San Gregorio in Laurel, Batangas", "Event": "Maring", "Date": "September 13, 2017", "DMGCost": "6,000,000", "Latitude": 14.037162803199999, "Longitude": 120.859904863, "DEO": "Batangas 1st DEO", "Descriptio": null }, "geometry": { "type": "Point", "coordinates": [ 120.859904863442893, 14.037162803153628 ] } },
{ "type": "Feature", "properties": { "NewID": 134, "Location": "Brgy. Mahabang Dahilig in Lemery, Batangas", "Event": "Maring", "Date": "September 13, 2017", "DMGCost": "1,000,000", "Latitude": 13.9533408956, "Longitude": 120.88274511500001, "DEO": "Batangas 1st DEO", "Descriptio": null }, "geometry": { "type": "Point", "coordinates": [ 120.882745115193785, 13.953340895559327 ] } },
{ "type": "Feature", "properties": { "NewID": 135, "Location": "Brgy. Dayapan in Lemery, Batangas", "Event": "Maring", "Date": "September 13, 2017", "DMGCost": "3,100,000", "Latitude": 13.918632987800001, "Longitude": 120.87869133700001, "DEO": "Batangas 1st DEO", "Descriptio": null }, "geometry": { "type": "Point", "coordinates": [ 120.878691336862971, 13.91863298783638 ] } },
{ "type": "Feature", "properties": { "NewID": 136, "Location": "Brgy. Mahabang Dahilig in Lemery, Batangas", "Event": "Quinta", "Date": "October 27, 2020", "DMGCost": "2,500,000", "Latitude": 13.9533408956, "Longitude": 120.88274511500001, "DEO": "Batangas 1st DEO", "Descriptio": null }, "geometry": { "type": "Point", "coordinates": [ 120.882745115193785, 13.953340895559327 ] } },
{ "type": "Feature", "properties": { "NewID": 137, "Location": "Brgy. Aga, Nasugbu, Batangas", "Event": "Rolly", "Date": "November 2, 2020", "DMGCost": "6,300,000", "Latitude": 14.0889096567, "Longitude": 120.77727646699999, "DEO": "Batangas 1st DEO", "Descriptio": null }, "geometry": { "type": "Point", "coordinates": [ 120.777276466556771, 14.088909656661427 ] } },
{ "type": "Feature", "properties": { "NewID": 138, "Location": "Brgy. Tamayo in Calaca, Batangas", "Event": "Ulysses", "Date": "November 13, 2020", "DMGCost": "15,000,000", "Latitude": 14.0123184917, "Longitude": 120.84828962900001, "DEO": "Batangas 1st DEO", "Descriptio": null }, "geometry": { "type": "Point", "coordinates": [ 120.848289628585761, 14.012318491735746 ] } },
{ "type": "Feature", "properties": { "NewID": 139, "Location": "Brgy. Tamayo in Calaca, Batangas", "Event": "Jolina", "Date": "October 4, 2021", "DMGCost": "8,800,000", "Latitude": 14.0123184917, "Longitude": 120.84828962900001, "DEO": "Batangas 1st DEO", "Descriptio": null }, "geometry": { "type": "Point", "coordinates": [ 120.848289628585761, 14.012318491735746 ] } },
{ "type": "Feature", "properties": { "NewID": 140, "Location": "Brgy. Mahabang Dahilig in Lemery, Batangas", "Event": "Jolina", "Date": "October 4, 2021", "DMGCost": "17,500,000", "Latitude": 13.9533408956, "Longitude": 120.88274511500001, "DEO": "Batangas 1st DEO", "Descriptio": null }, "geometry": { "type": "Point", "coordinates": [ 120.882745115193785, 13.953340895559327 ] } },
{ "type": "Feature", "properties": { "NewID": 141, "Location": "Brgy. Dayapan in Lemery, Batangas", "Event": "Jolina", "Date": "October 4, 2021", "DMGCost": "20,000,000", "Latitude": 13.918632987800001, "Longitude": 120.87869133700001, "DEO": "Batangas 1st DEO", "Descriptio": null }, "geometry": { "type": "Point", "coordinates": [ 120.878691336862971, 13.91863298783638 ] } },
{ "type": "Feature", "properties": { "NewID": 142, "Location": "Brgy. Sinisian West in Lemery, Batangas (Sinisian Bridge Revetment and Abutment)", "Event": "Jolina", "Date": "October 4, 2021", "DMGCost": "4,200,000", "Latitude": 13.91230696, "Longitude": 120.84830614099999, "DEO": "Batangas 1st DEO", "Descriptio": null }, "geometry": { "type": "Point", "coordinates": [ 120.84830614100008, 13.912306960000024 ] } },
{ "type": "Feature", "properties": { "NewID": 143, "Location": "Sinisian River (Upstream) at Brgy. Sinisian, Calaca, Batangas", "Event": "Jolina", "Date": "October 4, 2021", "DMGCost": "3,500,000", "Latitude": 13.916456788, "Longitude": 120.849633731, "DEO": "Batangas 1st DEO", "Descriptio": null }, "geometry": { "type": "Point", "coordinates": [ 120.84963373100004, 13.916456788000062 ] } },
{ "type": "Feature", "properties": { "NewID": 144, "Location": "Matingain Creek (Downstream) at Brgy. Matingain I, Lemery, Batangas", "Event": "Jolina", "Date": "October 4, 2021", "DMGCost": "1,200,000", "Latitude": 13.9035606375, "Longitude": 120.88408081599999, "DEO": "Batangas 1st DEO", "Descriptio": null }, "geometry": { "type": "Point", "coordinates": [ 120.884080816086794, 13.90356063750958 ] } },
{ "type": "Feature", "properties": { "NewID": 145, "Location": "Matingain Creek (Downstream) at Brgy. Nonong Casto, Lemery, Batangas", "Event": "Jolina", "Date": "October 4, 2021", "DMGCost": "1,500,000", "Latitude": 13.9003180212, "Longitude": 120.884121212, "DEO": "Batangas 1st DEO", "Descriptio": null }, "geometry": { "type": "Point", "coordinates": [ 120.884121212443546, 13.900318021182219 ] } },
{ "type": "Feature", "properties": { "NewID": 146, "Location": "Brgy. Salong, Calaca, Batangas (Calaca Bridge Revetment)", "Event": "Jolina", "Date": "October 4, 2021", "DMGCost": "1,500,000", "Latitude": 13.92695137, "Longitude": 120.813668783, "DEO": "Batangas 1st DEO", "Descriptio": null }, "geometry": { "type": "Point", "coordinates": [ 120.813668783000026, 13.92695137000004 ] } },
{ "type": "Feature", "properties": { "NewID": 147, "Location": "Brgy. Papaya in Nasugbu, Batangas", "Event": "Jolina", "Date": "October 4, 2021", "DMGCost": "20,500,000", "Latitude": 14.1904701752, "Longitude": 120.59790831399999, "DEO": "Batangas 1st DEO", "Descriptio": null }, "geometry": { "type": "Point", "coordinates": [ 120.597908314359088, 14.190470175203803 ] } },
{ "type": "Feature", "properties": { "NewID": 148, "Location": "Brgy. Looc in Nasugbu, Batangas", "Event": "Jolina", "Date": "October 4, 2021", "DMGCost": "1,000,000", "Latitude": 14.163808873400001, "Longitude": 120.62961094800001, "DEO": "Batangas 1st DEO", "Descriptio": null }, "geometry": { "type": "Point", "coordinates": [ 120.629610948286171, 14.163808873379395 ] } },
{ "type": "Feature", "properties": { "NewID": 149, "Location": "Brgy. Tuyon-tuyon in Tuy, Batangas (Atga Bridge)", "Event": "Jolina", "Date": "October 4, 2021", "DMGCost": "16,000,000", "Latitude": 13.996631366000001, "Longitude": 120.728866146, "DEO": "Batangas 1st DEO", "Descriptio": null }, "geometry": { "type": "Point", "coordinates": [ 120.728866146000087, 13.996631366000031 ] } },
{ "type": "Feature", "properties": { "NewID": 150, "Location": "Lian River (Downstream) at Brgy. Lumbangan, Nasugbu, Batangas", "Event": "Jolina", "Date": "October 4, 2021", "DMGCost": "19,500,000", "Latitude": 14.048484618, "Longitude": 120.647277746, "DEO": "Batangas 1st DEO", "Descriptio": null }, "geometry": { "type": "Point", "coordinates": [ 120.6472777460001, 14.048484618000032 ] } },
{ "type": "Feature", "properties": { "NewID": 151, "Location": "Lian River (Downstream) at Brgy. Bungahan, Nasugbu, Batangas", "Event": "Jolina", "Date": "October 4, 2021", "DMGCost": "97,300,000", "Latitude": 14.058568555000001, "Longitude": 120.62512411199999, "DEO": "Batangas 1st DEO", "Descriptio": null }, "geometry": { "type": "Point", "coordinates": [ 120.625124112000094, 14.058568555000022 ] } },
{ "type": "Feature", "properties": { "NewID": 152, "Location": "Brgy. Obispo, Tuy, Batangas (Obispo Bridge Revetment)", "Event": "Jolina", "Date": "October 4, 2021", "DMGCost": "1,000,000", "Latitude": 14.00958113, "Longitude": 120.728162862, "DEO": "Batangas 1st DEO", "Descriptio": null }, "geometry": { "type": "Point", "coordinates": [ 120.72816286200009, 14.009581130000072 ] } },
{ "type": "Feature", "properties": { "NewID": 153, "Location": "Brgy. Dacanlao, Calaca, Batangas (Cawong Bridge Abutment, 1st approach)", "Event": "Jolina", "Date": "October 4, 2021", "DMGCost": "1,000,000", "Latitude": 13.940145902099999, "Longitude": 120.792246359, "DEO": "Batangas 1st DEO", "Descriptio": null }, "geometry": { "type": "Point", "coordinates": [ 120.792246358903981, 13.940145902094184 ] } },
{ "type": "Feature", "properties": { "NewID": 154, "Location": "Brgy. Pantay, Calaca, Batangas (Cawong Bridge Revetment, 2nd approach)", "Event": "Jolina", "Date": "October 4, 2021", "DMGCost": "1,000,000", "Latitude": 13.9402087076, "Longitude": 120.792510142, "DEO": "Batangas 1st DEO", "Descriptio": null }, "geometry": { "type": "Point", "coordinates": [ 120.792510142073056, 13.940208707610632 ] } },
{ "type": "Feature", "properties": { "NewID": 155, "Location": "Brgy. Sinisian East, Lemery, Batangas (Calbangan Bridge Revetment)", "Event": "Jolina", "Date": "October 4, 2021", "DMGCost": "2,000,000", "Latitude": 13.910125174899999, "Longitude": 120.862885281, "DEO": "Batangas 1st DEO", "Descriptio": null }, "geometry": { "type": "Point", "coordinates": [ 120.862885281483173, 13.91012517488487 ] } },
{ "type": "Feature", "properties": { "NewID": 156, "Location": "Brgy. Mahabang Dahilig in Lemery, Batangas", "Event": "Paeng", "Date": "November 3, 2022", "DMGCost": "10,000,000", "Latitude": 13.9533408956, "Longitude": 120.88274511500001, "DEO": "Batangas 1st DEO", "Descriptio": null }, "geometry": { "type": "Point", "coordinates": [ 120.882745115193785, 13.953340895559327 ] } },
{ "type": "Feature", "properties": { "NewID": 157, "Location": "Brgy. Dayapan in Lemery, Batangas", "Event": "Paeng", "Date": "November 3, 2022", "DMGCost": "40,000,000", "Latitude": 13.918632987800001, "Longitude": 120.87869133700001, "DEO": "Batangas 1st DEO", "Descriptio": null }, "geometry": { "type": "Point", "coordinates": [ 120.878691336862971, 13.91863298783638 ] } },
{ "type": "Feature", "properties": { "NewID": 158, "Location": "Brgy. Sinisian, Calaca, Batangas", "Event": "Paeng", "Date": "November 3, 2022", "DMGCost": "1,300,000", "Latitude": 13.916456788, "Longitude": 120.849633731, "DEO": "Batangas 1st DEO", "Descriptio": null }, "geometry": { "type": "Point", "coordinates": [ 120.84963373100004, 13.916456788000062 ] } },
{ "type": "Feature", "properties": { "NewID": 159, "Location": "Brgy. Sinisian West and Brgy. Sinisian, Lemery & Calaca, Batangas (Sinisian Bridge)", "Event": "Paeng", "Date": "November 3, 2022", "DMGCost": "3,500,000", "Latitude": 13.91230696, "Longitude": 120.84830614099999, "DEO": "Batangas 1st DEO", "Descriptio": null }, "geometry": { "type": "Point", "coordinates": [ 120.84830614100008, 13.912306960000024 ] } },
{ "type": "Feature", "properties": { "NewID": 160, "Location": "Brgy. Malinis & Brgy. Ayao-Iyao, Lemery, Batangas", "Event": "Paeng", "Date": "November 3, 2022", "DMGCost": "15,000,000", "Latitude": 13.9020315, "Longitude": 120.906929758, "DEO": "Batangas 1st DEO", "Descriptio": null }, "geometry": { "type": "Point", "coordinates": [ 120.906929758000047, 13.902031500000021 ] } },
{ "type": "Feature", "properties": { "NewID": 161, "Location": "Brgy. Puting Kahoy, Lian, Batangas", "Event": "Paeng", "Date": "November 3, 2022", "DMGCost": "1,000,000", "Latitude": 13.9831725883, "Longitude": 120.647314127, "DEO": "Batangas 1st DEO", "Descriptio": null }, "geometry": { "type": "Point", "coordinates": [ 120.647314126624977, 13.983172588307573 ] } },
{ "type": "Feature", "properties": { "NewID": 162, "Location": "Brgy. Tanggoy, Balayan, Batangas", "Event": "Kristine", "Date": "November 7, 2024", "DMGCost": "97,233.03", "Latitude": 13.9509458978, "Longitude": 120.681785727, "DEO": "Batangas 1st DEO", "Descriptio": null }, "geometry": { "type": "Point", "coordinates": [ 120.681785727452436, 13.950945897786479 ] } },
{ "type": "Feature", "properties": { "NewID": 163, "Location": "Brgy. Balibago, Lian, Batangas", "Event": "Kristine", "Date": "November 7, 2024", "DMGCost": "2,934,669.92", "Latitude": 13.9323553682, "Longitude": 120.619215043, "DEO": "Batangas 1st DEO", "Descriptio": null }, "geometry": { "type": "Point", "coordinates": [ 120.619215042886438, 13.932355368163213 ] } },
{ "type": "Feature", "properties": { "NewID": 164, "Location": "Brgy. Tamayo in Calaca, Batangas", "Event": "Kristine", "Date": "November 7, 2024", "DMGCost": "728,735.37", "Latitude": 14.0123184917, "Longitude": 120.84828962900001, "DEO": "Batangas 1st DEO", "Descriptio": null }, "geometry": { "type": "Point", "coordinates": [ 120.848289628585761, 14.012318491735746 ] } },
{ "type": "Feature", "properties": { "NewID": 165, "Location": "Brgy. Mahabang Dahilig in Lemery, Batangas", "Event": "Kristine", "Date": "November 7, 2024", "DMGCost": "12,599,586.44", "Latitude": 13.9533408956, "Longitude": 120.88274511500001, "DEO": "Batangas 1st DEO", "Descriptio": null }, "geometry": { "type": "Point", "coordinates": [ 120.882745115193785, 13.953340895559327 ] } },
{ "type": "Feature", "properties": { "NewID": 166, "Location": "Brgy. San Gregorio in Laurel, Batangas", "Event": "Kristine", "Date": "November 7, 2024", "DMGCost": "1,201,146.37", "Latitude": 14.037162803199999, "Longitude": 120.859904863, "DEO": "Batangas 1st DEO", "Descriptio": null }, "geometry": { "type": "Point", "coordinates": [ 120.859904863442893, 14.037162803153628 ] } },
{ "type": "Feature", "properties": { "NewID": 167, "Location": "Brgy. Dayapan in Lemery, Batangas", "Event": "Kristine", "Date": "November 7, 2024", "DMGCost": "1,329,855.94", "Latitude": 13.918632987800001, "Longitude": 120.87869133700001, "DEO": "Batangas 1st DEO", "Descriptio": null }, "geometry": { "type": "Point", "coordinates": [ 120.878691336862971, 13.91863298783638 ] } },
{ "type": "Feature", "properties": { "NewID": 168, "Location": "Brgy. Bungahan, Lian, Batangas", "Event": "Kristine", "Date": "November 7, 2024", "DMGCost": "74,850.00", "Latitude": 14.058568555000001, "Longitude": 120.62512411199999, "DEO": "Batangas 1st DEO", "Descriptio": null }, "geometry": { "type": "Point", "coordinates": [ 120.625124112000094, 14.058568555000022 ] } },
{ "type": "Feature", "properties": { "NewID": 169, "Location": "Sitio Aguha, Brgy. Puting Kahoy, Lian, Batangas", "Event": "Kristine", "Date": "November 7, 2024", "DMGCost": "700,000.00", "Latitude": 13.9899764035, "Longitude": 120.650941817, "DEO": "Batangas 1st DEO", "Descriptio": null }, "geometry": { "type": "Point", "coordinates": [ 120.650941816677317, 13.989976403475955 ] } },
{ "type": "Feature", "properties": { "NewID": 170, "Location": "Brgy. Papaya in Nasugbu, Batangas", "Event": "Kristine", "Date": "November 7, 2024", "DMGCost": "12,915,397.32", "Latitude": 14.1904701752, "Longitude": 120.59790831399999, "DEO": "Batangas 1st DEO", "Descriptio": null }, "geometry": { "type": "Point", "coordinates": [ 120.597908314359088, 14.190470175203803 ] } },
{ "type": "Feature", "properties": { "NewID": 171, "Location": "Brgy. Binubusan, Lian, Batangas", "Event": "Kristine", "Date": "November 7, 2024", "DMGCost": "182,554.22", "Latitude": 13.9694800962, "Longitude": 120.627917608, "DEO": "Batangas 1st DEO", "Descriptio": null }, "geometry": { "type": "Point", "coordinates": [ 120.627917607839905, 13.969480096212358 ] } },
{ "type": "Feature", "properties": { "NewID": 172, "Location": "Brgy. Matingain I, Lemery, Batangas", "Event": "Kristine", "Date": "November 7, 2024", "DMGCost": "22,440,360.28", "Latitude": 13.9035606375, "Longitude": 120.88408081599999, "DEO": "Batangas 1st DEO", "Descriptio": null }, "geometry": { "type": "Point", "coordinates": [ 120.884080816086794, 13.90356063750958 ] } },
{ "type": "Feature", "properties": { "NewID": 173, "Location": "Brgy. Malinis & Brgy. Palanas, Lemery, Batangas", "Event": "Kristine", "Date": "November 7, 2024", "DMGCost": "22,772,999.60", "Latitude": 13.895511507, "Longitude": 120.906259576, "DEO": "Batangas 1st DEO", "Descriptio": null }, "geometry": { "type": "Point", "coordinates": [ 120.906259576000025, 13.895511507000037 ] } },
{ "type": "Feature", "properties": { "NewID": 174, "Location": "Brgy. Santol & Brgy. Navotas, Balayan, Batangas (Benabang River Revetment)", "Event": "Kristine", "Date": "November 7, 2024", "DMGCost": "79,902,000.00", "Latitude": 13.936620168299999, "Longitude": 120.72188745699999, "DEO": "Batangas 1st DEO", "Descriptio": null }, "geometry": { "type": "Point", "coordinates": [ 120.721887456932961, 13.936620168287094 ] } },
{ "type": "Feature", "properties": { "NewID": 175, "Location": "Brgy. Navotas, Balayan, Batangas (Benabang River Revetment)", "Event": "Kristine", "Date": "November 7, 2024", "DMGCost": "118,548,995.90", "Latitude": 13.9356791073, "Longitude": 120.723613732, "DEO": "Batangas 1st DEO", "Descriptio": null }, "geometry": { "type": "Point", "coordinates": [ 120.723613731601034, 13.935679107325935 ] } },
{ "type": "Feature", "properties": { "NewID": 176, "Location": "Brgy. Poblacion, Balayan, Batangas (Benabang River Revetment)", "Event": "Kristine", "Date": "November 7, 2024", "DMGCost": "524,729.45", "Latitude": 13.934644549, "Longitude": 120.725388086, "DEO": "Batangas 1st DEO", "Descriptio": null }, "geometry": { "type": "Point", "coordinates": [ 120.725388086000066, 13.934644549000041 ] } },
{ "type": "Feature", "properties": { "NewID": 177, "Location": "Brgy. Pantay, City of Calaca, Batangas (Cawong River Revetment)", "Event": "Kristine", "Date": "November 7, 2024", "DMGCost": "115,029.76", "Latitude": 13.9402087076, "Longitude": 120.792510142, "DEO": "Batangas 1st DEO", "Descriptio": null }, "geometry": { "type": "Point", "coordinates": [ 120.792510142073056, 13.940208707610632 ] } },
{ "type": "Feature", "properties": { "NewID": 178, "Location": "Brgy. Salong, City of Calaca, Batangas (Calaca River Revetment)", "Event": "Kristine", "Date": "November 7, 2024", "DMGCost": "940,517.65", "Latitude": 13.92695137, "Longitude": 120.813668783, "DEO": "Batangas 1st DEO", "Descriptio": null }, "geometry": { "type": "Point", "coordinates": [ 120.813668783000026, 13.92695137000004 ] } },
{ "type": "Feature", "properties": { "NewID": 179, "Location": "Brgy. Salong, City of Calaca, Batangas (Calaca Bridge)", "Event": "Kristine", "Date": "November 7, 2024", "DMGCost": "680,643.41", "Latitude": 13.9269242991, "Longitude": 120.813721668, "DEO": "Batangas 1st DEO", "Descriptio": null }, "geometry": { "type": "Point", "coordinates": [ 120.813721667727023, 13.926924299084705 ] } },
{ "type": "Feature", "properties": { "NewID": 180, "Location": "Brgy. Sinisian, City of Calaca, Batangas (Colong-colong River Revetment)", "Event": "Kristine", "Date": "November 7, 2024", "DMGCost": "3,121,602.21", "Latitude": 13.910570504600001, "Longitude": 120.84250674, "DEO": "Batangas 1st DEO", "Descriptio": null }, "geometry": { "type": "Point", "coordinates": [ 120.842506739751599, 13.910570504591234 ] } },
{ "type": "Feature", "properties": { "NewID": 181, "Location": "Brgy. Sinisian West, Lemery, Batangas (Colong-colong River Revetment)", "Event": "Kristine", "Date": "November 7, 2024", "DMGCost": "3,112,889.68", "Latitude": 13.909416653, "Longitude": 120.84720041, "DEO": "Batangas 1st DEO", "Descriptio": null }, "geometry": { "type": "Point", "coordinates": [ 120.847200410000028, 13.909416653000051 ] } },
{ "type": "Feature", "properties": { "NewID": 182, "Location": "Brgy. Matingain I, Lemery, Batangas (Lagnas River Revetment)", "Event": "Kristine", "Date": "November 7, 2024", "DMGCost": "1,325,629.19", "Latitude": 13.9035606375, "Longitude": 120.88408081599999, "DEO": "Batangas 1st DEO", "Descriptio": null }, "geometry": { "type": "Point", "coordinates": [ 120.884080816086794, 13.90356063750958 ] } },
{ "type": "Feature", "properties": { "NewID": 183, "Location": "Brgy. Nonong Casto, Lemery, Batangas (Lagnas River Revetment)", "Event": "Kristine", "Date": "November 7, 2024", "DMGCost": "605,306.13", "Latitude": 13.9003180212, "Longitude": 120.884121212, "DEO": "Batangas 1st DEO", "Descriptio": null }, "geometry": { "type": "Point", "coordinates": [ 120.884121212443546, 13.900318021182219 ] } },
{ "type": "Feature", "properties": { "NewID": 184, "Location": "Brgy. Bilaran, nasugbu, Batangas (Lian-Palico River Revetment)", "Event": "Kristine", "Date": "November 7, 2024", "DMGCost": "29,030,901.05", "Latitude": 14.050423721, "Longitude": 120.674353131, "DEO": "Batangas 1st DEO", "Descriptio": null }, "geometry": { "type": "Point", "coordinates": [ 120.674353131000089, 14.050423721000072 ] } },
{ "type": "Feature", "properties": { "NewID": 185, "Location": "Brgy. Bungahan, Lian, Batangas (Lian River Revetment)", "Event": "Kristine", "Date": "November 7, 2024", "DMGCost": "61,760,000.00", "Latitude": 14.0533808295, "Longitude": 120.632876647, "DEO": "Batangas 1st DEO", "Descriptio": null }, "geometry": { "type": "Point", "coordinates": [ 120.632876646990326, 14.053380829516415 ] } },
{ "type": "Feature", "properties": { "NewID": 186, "Location": "Brgy. Lumbangan, Nasugbu, Batangas (Lian River Revetment)", "Event": "Kristine", "Date": "November 7, 2024", "DMGCost": "68,093,016.95", "Latitude": 14.048484618, "Longitude": 120.647277746, "DEO": "Batangas 1st DEO", "Descriptio": null }, "geometry": { "type": "Point", "coordinates": [ 120.6472777460001, 14.048484618000032 ] } },
{ "type": "Feature", "properties": { "NewID": 187, "Location": "Brgy. Melgar A - Brgy. Melgar B, Naujan, Oriental Mindoro", "Event": "Paeng", "Date": "October 27, 2022", "DMGCost": "50,000,000", "Latitude": 13.2779433811, "Longitude": 121.35817973499999, "DEO": "Mindoro Oriental DEO", "Descriptio": null }, "geometry": { "type": "Point", "coordinates": [ 121.358179735249209, 13.277943381093694 ] } },
{ "type": "Feature", "properties": { "NewID": 188, "Location": "Brgy. San Rafael, Puerto Princesa City, Palawan", "Event": "Odette", "Date": "December 17, 2021", "DMGCost": "30,250,300", "Latitude": 9.9854709650300002, "Longitude": 118.962734232, "DEO": "Palawan 3rd DEO", "Descriptio": null }, "geometry": { "type": "Point", "coordinates": [ 118.962734232304584, 9.985470965031761 ] } },
{ "type": "Feature", "properties": { "NewID": 189, "Location": "Brgy. Inagawan Sub, Puerto Princesa City, Palawan", "Event": "Uwan", "Date": "November 19, 2025", "DMGCost": "10,500,000", "Latitude": 9.5667673176200001, "Longitude": 118.670534644, "DEO": "Palawan 3rd DEO", "Descriptio": null }, "geometry": { "type": "Point", "coordinates": [ 118.67053464430937, 9.566767317623283 ] } },
{ "type": "Feature", "properties": { "NewID": 190, "Location": "Tablas Circumferential Road, K0059+340 - K0059+360, Brgy. Binongaan, San Agustin, Romblon", "Event": "Opong & Nando", "Date": "September 19, 2025", "DMGCost": "675,000", "Latitude": 12.5327257603, "Longitude": 122.12819666199999, "DEO": "Romblon DEO", "Descriptio": null }, "geometry": { "type": "Point", "coordinates": [ 122.128196661599361, 12.532725760295033 ] } },
{ "type": "Feature", "properties": { "NewID": 191, "Location": "Sibuyan Circumferential Road, K0082+380 - K0082+389 (LS), Brgy. Marigondon, Cajidiocan, Romblon", "Event": "Opong & Nando", "Date": "September 19, 2025", "DMGCost": "180,000", "Latitude": 12.43692982, "Longitude": 122.681020379, "DEO": "Romblon DEO", "Descriptio": null }, "geometry": { "type": "Point", "coordinates": [ 122.681020379000074, 12.436929820000046 ] } },
{ "type": "Feature", "properties": { "NewID": 192, "Location": "Sibuyan Circumferential Road, K0085+150 - K0085+168 (LS), Brgy. Marigondon, Cajidiocan, Romblon", "Event": "Opong & Nando", "Date": "September 19, 2025", "DMGCost": "360,000", "Latitude": 12.439192318, "Longitude": 122.67905878000001, "DEO": "Romblon DEO", "Descriptio": null }, "geometry": { "type": "Point", "coordinates": [ 122.679058780000105, 12.439192318000039 ] } },
{ "type": "Feature", "properties": { "NewID": 193, "Location": "Sibuyan Circumferential Road, K0087+500 - K0087+511 (LS), Brgy. Taguilos, Cajidiocan, Romblon", "Event": "Opong & Nando", "Date": "September 19, 2025", "DMGCost": "220,000", "Latitude": 12.4078793666, "Longitude": 122.694816097, "DEO": "Romblon DEO", "Descriptio": null }, "geometry": { "type": "Point", "coordinates": [ 122.694816096825647, 12.407879366597223 ] } },
{ "type": "Feature", "properties": { "NewID": 194, "Location": "Brgy. Wawa, Pinamalayan, Oriental Mindoro", "Event": "Quinta", "Date": "October 26, 2020", "DMGCost": "27,300,000", "Latitude": 13.036906590399999, "Longitude": 121.49353191599999, "DEO": "Southern Mindoro DEO", "Descriptio": null }, "geometry": { "type": "Point", "coordinates": [ 121.493531915567502, 13.036906590448403 ] } },
{ "type": "Feature", "properties": { "NewID": 195, "Location": "Brgy. Libas, Buenavista, Marinduque", "Event": "Verdena", "Date": "December 3, 2025", "DMGCost": "2,500,000", "Latitude": 13.246467, "Longitude": 121.953002, "DEO": "Marinduque DEO", "Descriptio": null }, "geometry": { "type": "Point", "coordinates": [ 121.953002, 13.246467 ] } },
{ "type": "Feature", "properties": { "NewID": 196, "Location": "Brgy. Quatro, Buenavista, Marinduque", "Event": "Verdena", "Date": "December 3, 2025", "DMGCost": "3,500,000", "Latitude": 13.251952, "Longitude": 121.944935, "DEO": "Marinduque DEO", "Descriptio": null }, "geometry": { "type": "Point", "coordinates": [ 121.944935, 13.251952 ] } },
{ "type": "Feature", "properties": { "NewID": 197, "Location": "Brgy. Uno, Buenavista, Marinduque", "Event": "Uwan", "Date": "November 13, 2025", "DMGCost": "2,000,000", "Latitude": 13.25357, "Longitude": 121.941289, "DEO": "Marinduque DEO", "Descriptio": null }, "geometry": { "type": "Point", "coordinates": [ 121.941289, 13.25357 ] } },
{ "type": "Feature", "properties": { "NewID": 198, "Location": "Brgy. Dangay, Roxas, Oriental Mindoro", "Event": "Odette", "Date": "December 15, 2021", "DMGCost": "15,000,000", "Latitude": 12.59194, "Longitude": 121.52889, "DEO": "Southern Mindoro DEO", "Descriptio": null }, "geometry": { "type": "Point", "coordinates": [ 121.52889, 12.59194 ] } },
{ "type": "Feature", "properties": { "NewID": 199, "Location": "Seawall/Shore Protection along The President Carlos P. Garcia Circumferential Rd (S00078BH), K0202+300-K0202+400, Brgy. Can-uba, Jagna, Bohol", "Event": "Odette", "Date": "December 16, 2021", "DMGCost": "5,000,000.00", "Latitude": 9.627594, "Longitude": 124.343187, "DEO": "Bohol 3rd DEO", "Descriptio": "Roadslip due to scouring of shoreline" }, "geometry": { "type": "Point", "coordinates": [ 124.343187, 9.627594 ] } },
{ "type": "Feature", "properties": { "NewID": 200, "Location": "Shore Protection along The President Carlos P. Garcia Circumferential Rd (S00078BH), K0204+100-K00204+150 LS, Brgy. East Ulbujan, Garcia Hernandez, Bohol", "Event": "Odette", "Date": "December 16, 2021", "DMGCost": "5,000,000.00", "Latitude": 9.623525, "Longitude": 124.327464, "DEO": "Bohol 3rd DEO", "Descriptio": "Scouring of existing shore protection (grouted riprap)" }, "geometry": { "type": "Point", "coordinates": [ 124.327464, 9.623525 ] } },
{ "type": "Feature", "properties": { "NewID": 201, "Location": "Seawall/Shore Protection, along The President Carlos P. Garcia Circumferential Rd (S00078BH), K204+250-K0204+300, West Ulbujan, Garcia Hernandez, Bohol", "Event": "Odette", "Date": "December 16, 2021", "DMGCost": "5,000,000.00", "Latitude": 9.623526, "Longitude": 124.326132, "DEO": "Bohol 3rd DEO", "Descriptio": "Roadslip due to scouring of shoreline" }, "geometry": { "type": "Point", "coordinates": [ 124.326132, 9.623526 ] } },
{ "type": "Feature", "properties": { "NewID": 202, "Location": "Seawall/Shore Protection along The President Carlos P. Garcia Circumferential Rd (S00078BH), K0211+300-K0213+150 (intermetent sections) LS, Brgy. Malinao Garcia Hernandez, Bohol", "Event": "Odette", "Date": "December 16, 2021", "DMGCost": "10,000,000.00", "Latitude": 9.599198, "Longitude": 124.259288, "DEO": "Bohol 3rd DEO", "Descriptio": "Scouring of existing grouted riprap shore protection" }, "geometry": { "type": "Point", "coordinates": [ 124.259288, 9.599198 ] } },
{ "type": "Feature", "properties": { "NewID": 203, "Location": "Slope Protection along The President Carlos P. Garcia Circumferential Rd (S00078BH), K236+800- K0236+815 LS, Loay, Bohol", "Event": "Odette", "Date": "December 16, 2021", "DMGCost": "1,000,000.00", "Latitude": 9.590057, "Longitude": 124.054477, "DEO": "Bohol 3rd DEO", "Descriptio": "Road slip due to scouring and collapse of existing slope protection foundation" }, "geometry": { "type": "Point", "coordinates": [ 124.054477, 9.590057 ] } },
{ "type": "Feature", "properties": { "NewID": 204, "Location": "Seawall along The President Carlos P. Garcia Circumferential Rd (S00078BH), K0237+900- K0237+930 LS, Tocdog, Loay, Bohol", "Event": "Odette", "Date": "December 16, 2021", "DMGCost": "4,000,000.00", "Latitude": 9.593173, "Longitude": 124.04517, "DEO": "Bohol 3rd DEO", "Descriptio": "Road slip due to scouring of shore line" }, "geometry": { "type": "Point", "coordinates": [ 124.04517, 9.593173 ] } },
{ "type": "Feature", "properties": { "NewID": 205, "Location": "Seawall along The President Carlos P. Garcia Circumferential Rd (S00078BH), Canayaon West, Garcia Hernandez, Bohol", "Event": "Odette", "Date": "December 16, 2021", "DMGCost": "2,000,000.00", "Latitude": 9.617424, "Longitude": 124.308725, "DEO": "Bohol 3rd DEO", "Descriptio": "Damaged seawall" }, "geometry": { "type": "Point", "coordinates": [ 124.308725, 9.617424 ] } },
{ "type": "Feature", "properties": { "NewID": 206, "Location": "Seawall along The President Carlos P. Garcia Circumferential Rd (S00078BH), Cayam Garcia Hernandez, Bohol", "Event": "Odette", "Date": "December 16, 2021", "DMGCost": "5,000,000.00", "Latitude": 9.604354, "Longitude": 124.275112, "DEO": "Bohol 3rd DEO", "Descriptio": "Damaged seawall" }, "geometry": { "type": "Point", "coordinates": [ 124.275112, 9.604354 ] } },
{ "type": "Feature", "properties": { "NewID": 207, "Location": "South Granada Seawall along N Bacalso Ave (Cebu South Rd) (S00310CB), K0106+700, Brgy. South Granada, Boljoon, Cebu", "Event": "Odette", "Date": "December 16, 2021", "DMGCost": "5,600,000.00", "Latitude": 9.570823, "Longitude": 123.465472, "DEO": "Cebu 2nd DEO (formerly Cebu 4th DEO)", "Descriptio": "Damaged seawall due to coastal erosion on 12/16/2021 around 10 PM; length of damage = 100 m" }, "geometry": { "type": "Point", "coordinates": [ 123.465472, 9.570823 ] } },
{ "type": "Feature", "properties": { "NewID": 208, "Location": "Pungtod Seawall along N Bacalso Ave (Cebu South Rd) (S00310CB), K0109+600, Brgy. Pungtod, Oslob, Cebu", "Event": "Odette", "Date": "December 16, 2021", "DMGCost": "4,000,000.00", "Latitude": 9.550407, "Longitude": 123.4522, "DEO": "Cebu 2nd DEO (formerly Cebu 4th DEO)", "Descriptio": "Damaged seawall due to coastal erosion on 12/16/2021 around 10 PM; length of damage = 70 m" }, "geometry": { "type": "Point", "coordinates": [ 123.4522, 9.550407 ] } },
{ "type": "Feature", "properties": { "NewID": 209, "Location": "Bonbon Seawall along N Bacalso Ave (Cebu South Rd) (S00310CB), K0112+100, Brgy. Bonbon, Oslob, Cebu", "Event": "Odette", "Date": "December 16, 2021", "DMGCost": "9,741,000.00", "Latitude": 9.550322, "Longitude": 123.452171, "DEO": "Cebu 2nd DEO (formerly Cebu 4th DEO)", "Descriptio": "Damaged seawall due to coastal erosion on 12/16/2021 around 10 PM; length of damage = 200 m" }, "geometry": { "type": "Point", "coordinates": [ 123.452171, 9.550322 ] } },
{ "type": "Feature", "properties": { "NewID": 210, "Location": "Looc Seawall along N Bacalso Ave (Cebu South Rd) (S00310CB), K0113+500, Brgy. Looc, Oslob, Cebu", "Event": "Odette", "Date": "December 16, 2021", "DMGCost": "14,333,000.00", "Latitude": 9.533573, "Longitude": 123.440866, "DEO": "Cebu 2nd DEO (formerly Cebu 4th DEO)", "Descriptio": "Damaged seawall due to coastal erosion on 12/16/2021 around 10 PM; length of damage = 300 m" }, "geometry": { "type": "Point", "coordinates": [ 123.440866, 9.533573 ] } },
{ "type": "Feature", "properties": { "NewID": 211, "Location": "Colase Seawall along Santander-Barili-Toledo Rd (S00303CB), K0143+000, Brgy. Colase, Samboan, Cebu", "Event": "Odette", "Date": "December 16, 2021", "DMGCost": "2,960,000.00", "Latitude": 9.497125, "Longitude": 123.299389, "DEO": "Cebu 2nd DEO (formerly Cebu 4th DEO)", "Descriptio": "Damaged seawall due to coastal erosion on 12/16/2021 around 10 PM; length of damage = 50 m" }, "geometry": { "type": "Point", "coordinates": [ 123.299389, 9.497125 ] } },
{ "type": "Feature", "properties": { "NewID": 212, "Location": "Tangbo Seawall along Santander-Barili-Toledo Rd (S00303CB), K0146+100, Brgy. Tangbo, Samboan, Cebu", "Event": "Odette", "Date": "December 16, 2021", "DMGCost": "15,170,000.00", "Latitude": 9.50471, "Longitude": 123.300038, "DEO": "Cebu 2nd DEO (formerly Cebu 4th DEO)", "Descriptio": "Damaged seawall due to coastal erosion on 12/16/2021 around 10 PM; length of damage = 300 m" }, "geometry": { "type": "Point", "coordinates": [ 123.300038, 9.50471 ] } },
{ "type": "Feature", "properties": { "NewID": 213, "Location": "Tangbo Seawall along Santander-Barili-Toledo Rd (S00303CB), K0147+200, Brgy. Tangbo, Samboan, Cebu", "Event": "Odette", "Date": "December 16, 2021", "DMGCost": "2,990,000.00", "Latitude": 9.499737, "Longitude": 123.298724, "DEO": "Cebu 2nd DEO (formerly Cebu 4th DEO)", "Descriptio": "Damaged seawall due to coastal erosion on 12/16/2021 around 10 PM; length of damage = 50 m" }, "geometry": { "type": "Point", "coordinates": [ 123.298724, 9.499737 ] } },
{ "type": "Feature", "properties": { "NewID": 214, "Location": "Bonbon Seawall along Santander-Barili-Toledo Rd (S00303CB), K0147+750, Brgy. Bonbon, Samboan, Cebu", "Event": "Odette", "Date": "December 16, 2021", "DMGCost": "10,414,000.00", "Latitude": 9.510687, "Longitude": 123.301067, "DEO": "Cebu 2nd DEO (formerly Cebu 4th DEO)", "Descriptio": "Damaged seawall due to coastal erosion on 12/16/2021 around 10 PM; length of damage = 200 m" }, "geometry": { "type": "Point", "coordinates": [ 123.301067, 9.510687 ] } },
{ "type": "Feature", "properties": { "NewID": 215, "Location": "Suba Seawall along Santander-Barili-Toledo Rd (S00303CB), K0151+800, Brgy. Suba, Samboan, Cebu", "Event": "Odette", "Date": "December 16, 2021", "DMGCost": "5,862,000.00", "Latitude": 9.551601, "Longitude": 123.307904, "DEO": "Cebu 2nd DEO (formerly Cebu 4th DEO)", "Descriptio": "Damaged seawall due to coastal erosion on 12/16/2021 around 10 PM; length of damage = 100 m" }, "geometry": { "type": "Point", "coordinates": [ 123.307904, 9.551601 ] } },
{ "type": "Feature", "properties": { "NewID": 216, "Location": "Argao Seawall, Brgy. Poblacion, Argao, Cebu", "Event": "Odette", "Date": "December 16, 2021", "DMGCost": "50,000,000.00", "Latitude": 9.879971, "Longitude": 123.609829, "DEO": "Cebu 2nd DEO (formerly Cebu 4th DEO)", "Descriptio": "Damaged seawall due to coastal erosion 12/16/2021 around 10 PM, Length of damage = 300 m" }, "geometry": { "type": "Point", "coordinates": [ 123.609829, 9.879971 ] } },
{ "type": "Feature", "properties": { "NewID": 217, "Location": "Slope Protection and roads along Cebu North Hagnaya Wharf Rd (S00163CB), K0018+100 - K0018+120, Liloan, Cebu", "Event": "Odette", "Date": "December 16, 2021", "DMGCost": "20,000,000 (summed with 2 other points)", "Latitude": 10.488369, "Longitude": 124.027311, "DEO": "Cebu 5th DEO", "Descriptio": "Damaged slope protection and roads" }, "geometry": { "type": "Point", "coordinates": [ 124.027311, 10.488369 ] } },
{ "type": "Feature", "properties": { "NewID": 218, "Location": "Slope Protection and roads along Cebu North Hagnaya Wharf Rd (S00163CB), K0023+500, Compostela, Cebu", "Event": "Odette", "Date": "December 16, 2021", "DMGCost": "20,000,000 (summed with 2 other points)", "Latitude": 10.488264, "Longitude": 124.027308, "DEO": "Cebu 5th DEO", "Descriptio": "Damaged slope protection and roads" }, "geometry": { "type": "Point", "coordinates": [ 124.027308, 10.488264 ] } },
{ "type": "Feature", "properties": { "NewID": 219, "Location": "Slope Protection and roads along Cebu North Hagnaya Wharf Rd (S00163CB),K0029+590 - K0029+880, Danao, Cebu", "Event": "Odette", "Date": "December 16, 2021", "DMGCost": "20,000,000 (summed with 2 other points)", "Latitude": 10.488048, "Longitude": 124.027109, "DEO": "Cebu 5th DEO", "Descriptio": "Damaged slope protection and roads" }, "geometry": { "type": "Point", "coordinates": [ 124.027109, 10.488048 ] } },
{ "type": "Feature", "properties": { "NewID": 220, "Location": "Slope Protection and roads along Cebu North Hagnaya Wharf Rd (S00163CB), K0023+500 - K0023+580, Compostela, Cebu; K0023+600 - K0023+620, Compostela, Cebu; K0028+740 - K0029+660, Danao, Cebu; K0032+286 - K0032+397, Danao, Cebu", "Event": "Odette", "Date": "December 16, 2021", "DMGCost": "80,000,000 (summed with 2 other points)", "Latitude": 10.487615, "Longitude": 124.026931, "DEO": "Cebu 5th DEO", "Descriptio": "Damaged slope protection and roads" }, "geometry": { "type": "Point", "coordinates": [ 124.026931, 10.487615 ] } },
{ "type": "Feature", "properties": { "NewID": 221, "Location": "Slope Protection and roads along Cebu North Hagnaya Wharf Rd (S00163CB), K0023+500 - K0023+580, Compostela, Cebu; K0023+600 - K0023+620, Compostela, Cebu; K0028+740 - K0029+660, Danao, Cebu; K0032+286 - K0032+397, Danao, Cebu", "Event": "Odette", "Date": "December 16, 2021", "DMGCost": "80,000,000 (summed with 2 other points)", "Latitude": 10.491798, "Longitude": 124.029033, "DEO": "Cebu 5th DEO", "Descriptio": "Damaged slope protection and roads" }, "geometry": { "type": "Point", "coordinates": [ 124.029033, 10.491798 ] } },
{ "type": "Feature", "properties": { "NewID": 222, "Location": "Slope Protection and roads along Cebu North Hagnaya Wharf Rd (S00163CB), K0023+500 - K0023+580, Compostela, Cebu; K0023+600 - K0023+620, Compostela, Cebu; K0028+740 - K0029+660, Danao, Cebu; K0032+286 - K0032+397, Danao, Cebu", "Event": "Odette", "Date": "December 16, 2021", "DMGCost": "80,000,000 (summed with 2 other points)", "Latitude": 10.487652, "Longitude": 124.027056, "DEO": "Cebu 5th DEO", "Descriptio": "Damaged slope protection and roads" }, "geometry": { "type": "Point", "coordinates": [ 124.027056, 10.487652 ] } },
{ "type": "Feature", "properties": { "NewID": 223, "Location": "Slope Protection and roads along Cebu North Hagnaya Wharf Rd (S00253CB), K0033+(-293) - K0033+(-190), Brgy. Poblacion, Danao City, Cebu", "Event": "Odette", "Date": "December 16, 2021", "DMGCost": "20,000,000 (summed with 2 other points)", "Latitude": 10.515899, "Longitude": 124.027983, "DEO": "Cebu 5th DEO", "Descriptio": "Damaged slope protection and roads" }, "geometry": { "type": "Point", "coordinates": [ 124.027983, 10.515899 ] } },
{ "type": "Feature", "properties": { "NewID": 224, "Location": "Slope Protection and roads along Cebu North Hagnaya Wharf Rd (S00253CB), K0033+(-293) - K0033+(-190), Brgy. Poblacion, Danao City, Cebu", "Event": "Odette", "Date": "December 16, 2021", "DMGCost": "20,000,000 (summed with 2 other points)", "Latitude": 10.516224, "Longitude": 124.028016, "DEO": "Cebu 5th DEO", "Descriptio": "Damaged slope protection and roads" }, "geometry": { "type": "Point", "coordinates": [ 124.028016, 10.516224 ] } },
{ "type": "Feature", "properties": { "NewID": 225, "Location": "Slope Protection and roads along Cebu North Hagnaya Wharf Rd (S00253CB), K0033+(-293) - K0033+(-190), Brgy. Poblacion, Danao City, Cebu", "Event": "Odette", "Date": "December 16, 2021", "DMGCost": "20,000,000 (summed with 2 other points)", "Latitude": 10.513507, "Longitude": 124.02758, "DEO": "Cebu 5th DEO", "Descriptio": "Damaged slope protection and roads" }, "geometry": { "type": "Point", "coordinates": [ 124.02758, 10.513507 ] } },
{ "type": "Feature", "properties": { "NewID": 226, "Location": "Looc Br. (B00645CB) along Cebu North Hagnaya Wharf Rd (S00163CB), Brgy. Looc, Danao City, Cebu", "Event": "Odette", "Date": "December 16, 2021", "DMGCost": "8,000,000.00", "Latitude": 10.513253, "Longitude": 124.027603, "DEO": "Cebu 5th DEO", "Descriptio": "damaged slope protection at abutment B" }, "geometry": { "type": "Point", "coordinates": [ 124.027603, 10.513253 ] } },
{ "type": "Feature", "properties": { "NewID": 227, "Location": "Panalipan Br. (B00576CB) along Cebu North Hagnaya Wharf Rd (S00249CB), Brgy. Panalipan, Catmon, Cebu", "Event": "Odette", "Date": "December 16, 2021", "DMGCost": "30,000,000.00", "Latitude": 10.695409, "Longitude": 124.014643, "DEO": "Cebu 5th DEO", "Descriptio": "damaged slope protection and foundation at abutment A" }, "geometry": { "type": "Point", "coordinates": [ 124.014643, 10.695409 ] } },
{ "type": "Feature", "properties": { "NewID": 228, "Location": "Roads and seawall along Santander-Barili-Toledo Rd (S00409CB), K0156+500, K0156+200, K0156+250, K0156+900, K0157+200, K0157+950, K0158+950, Brgy. Guiwanon, Ginatilan, Cebu", "Event": "Odette", "Date": "December 16, 2021", "DMGCost": "24,500,000.00", "Latitude": 9.591344, "Longitude": 123.317378, "DEO": "Cebu 7th DEO", "Descriptio": "Damaged seawall; road slip" }, "geometry": { "type": "Point", "coordinates": [ 123.317378, 9.591344 ] } },
{ "type": "Feature", "properties": { "NewID": 229, "Location": "Roads and seawall along Santander-Barili-Toledo Rd (S00409CB), K0159+500, K0159+650, K0159+800, K0160+650, Brgy. Looc, Ginatilan, Cebu", "Event": "Odette", "Date": "December 16, 2021", "DMGCost": "10,500,000.00", "Latitude": 9.613021, "Longitude": 123.320764, "DEO": "Cebu 7th DEO", "Descriptio": "Damaged seawall; road slip" }, "geometry": { "type": "Point", "coordinates": [ 123.320764, 9.613021 ] } },
{ "type": "Feature", "properties": { "NewID": 230, "Location": "Roads and seawall along Santander-Barili-Toledo Rd (S00409CB), K0160+650, Brgy. Looc, Malabuyoc, Cebu", "Event": "Odette", "Date": "December 16, 2021", "DMGCost": "3,500,000.00", "Latitude": 9.621687, "Longitude": 123.32251, "DEO": "Cebu 7th DEO", "Descriptio": "Damaged seawall; road slip" }, "geometry": { "type": "Point", "coordinates": [ 123.32251, 9.621687 ] } },
{ "type": "Feature", "properties": { "NewID": 231, "Location": "Roads and seawall along Santander-Barili-Toledo Rd (S00409CB), K0161+800, Brgy. Sto Ni???o, Malabuyoc, Cebu", "Event": "Odette", "Date": "December 16, 2021", "DMGCost": "3,500,000.00", "Latitude": 9.635038, "Longitude": 123.325545, "DEO": "Cebu 7th DEO", "Descriptio": "Damaged seawall; road slip" }, "geometry": { "type": "Point", "coordinates": [ 123.325545, 9.635038 ] } },
{ "type": "Feature", "properties": { "NewID": 232, "Location": "Roads and seawall along Santander-Barili-Toledo Rd (S00409CB), K0161+650, Brgy. Sto Ni???o, Malabuyoc, Cebu", "Event": "Odette", "Date": "December 16, 2021", "DMGCost": "3,500,000.00", "Latitude": 9.636929, "Longitude": 123.326, "DEO": "Cebu 7th DEO", "Descriptio": "Damaged seawall; road slip" }, "geometry": { "type": "Point", "coordinates": [ 123.326, 9.636929 ] } },
{ "type": "Feature", "properties": { "NewID": 233, "Location": "Roads and seawall along Santander-Barili-Toledo Rd (S00409CB), K0161+650, Brgy. Sto Ni???o, Malabuyoc, Cebu", "Event": "Odette", "Date": "December 16, 2021", "DMGCost": "10,000,000.00", "Latitude": 9.63996, "Longitude": 123.325802, "DEO": "Cebu 7th DEO", "Descriptio": "Damaged seawall; road slip" }, "geometry": { "type": "Point", "coordinates": [ 123.325802, 9.63996 ] } },
{ "type": "Feature", "properties": { "NewID": 234, "Location": "Roads and seawall along Santander-Barili-Toledo Rd (S00409CB), K0162+000, Brgy. Botho Armenia, Malabuyoc, Cebu", "Event": "Odette", "Date": "December 16, 2021", "DMGCost": "3,000,000.00", "Latitude": 9.653045, "Longitude": 123.324336, "DEO": "Cebu 7th DEO", "Descriptio": "Road slip and damaged seawall" }, "geometry": { "type": "Point", "coordinates": [ 123.324336, 9.653045 ] } },
{ "type": "Feature", "properties": { "NewID": 235, "Location": "Roads and seawall along Santander-Barili-Toledo Rd (S00409CB), K0165+880, K0165+700, K0165+750, Brgy. Botho Armenia, Malabuyoc, Cebu", "Event": "Odette", "Date": "December 16, 2021", "DMGCost": "16,500,000.00", "Latitude": 9.666064, "Longitude": 123.324645, "DEO": "Cebu 7th DEO", "Descriptio": "Road slip and damaged seawall" }, "geometry": { "type": "Point", "coordinates": [ 123.324645, 9.666064 ] } },
{ "type": "Feature", "properties": { "NewID": 236, "Location": "Roads and seawall along Santander-Barili-Toledo Rd (S00409CB), K0167+850, Brgy. Monta???eza, Malabuyoc, Cebu", "Event": "Odette", "Date": "December 16, 2021", "DMGCost": "15,000,000.00", "Latitude": 9.683116, "Longitude": 123.328019, "DEO": "Cebu 7th DEO", "Descriptio": "Road slip and damaged seawall" }, "geometry": { "type": "Point", "coordinates": [ 123.328019, 9.683116 ] } },
{ "type": "Feature", "properties": { "NewID": 237, "Location": "Roads and seawall along Santander-Barili-Toledo Rd (S00409CB), K0166+200, K0166+500, K0166+650, K0166+700, K0166+950, K0167+500, K0167+650, Brgy. Monta???eza, Malabuyoc, Cebu", "Event": "Odette", "Date": "December 16, 2021", "DMGCost": "56,250,000.00", "Latitude": 9.692575, "Longitude": 123.331584, "DEO": "Cebu 7th DEO", "Descriptio": "Road slip and damaged seawall" }, "geometry": { "type": "Point", "coordinates": [ 123.331584, 9.692575 ] } },
{ "type": "Feature", "properties": { "NewID": 238, "Location": "Roads and seawall along Santander-Barili-Toledo Rd (S00409CB), K0169+450, Brgy. Monta???eza, Malabuyoc, Cebu", "Event": "Odette", "Date": "December 16, 2021", "DMGCost": "10,000,000.00", "Latitude": 9.7022, "Longitude": 123.335875, "DEO": "Cebu 7th DEO", "Descriptio": "Damaged seawall; road slip" }, "geometry": { "type": "Point", "coordinates": [ 123.335875, 9.7022 ] } },
{ "type": "Feature", "properties": { "NewID": 239, "Location": "Roads and seawall along Santander-Barili-Toledo Rd (S00409CB), K0169+900, K0170+050, K0170+200, K0170+400, K0171+200, K0171+500, K0171+850, K0172+180, K0172+200, Brgy. Legaspi, Alegria, Cebu", "Event": "Odette", "Date": "December 16, 2021", "DMGCost": "115,000,000.00", "Latitude": 9.709456, "Longitude": 123.336881, "DEO": "Cebu 7th DEO", "Descriptio": "Road slip and damaged seawall" }, "geometry": { "type": "Point", "coordinates": [ 123.336881, 9.709456 ] } },
{ "type": "Feature", "properties": { "NewID": 240, "Location": "Roads and seawall along Santander-Barili-Toledo Rd (S00409CB), K0174+850, Brgy. Sta Filomena, Alegria, Cebu", "Event": "Odette", "Date": "December 16, 2021", "DMGCost": "10,000,000.00", "Latitude": 9.752338, "Longitude": 123.343099, "DEO": "Cebu 7th DEO", "Descriptio": "Damaged seawall; road slip" }, "geometry": { "type": "Point", "coordinates": [ 123.343099, 9.752338 ] } },
{ "type": "Feature", "properties": { "NewID": 241, "Location": "Roads and seawall along Santander-Barili-Toledo Rd (S00409CB), K0175+650, Brgy. Sta Filomena, Alegria, Cebu", "Event": "Odette", "Date": "December 16, 2021", "DMGCost": "10,000,000.00", "Latitude": 9.757366, "Longitude": 123.344335, "DEO": "Cebu 7th DEO", "Descriptio": "Damaged seawall; road slip" }, "geometry": { "type": "Point", "coordinates": [ 123.344335, 9.757366 ] } },
{ "type": "Feature", "properties": { "NewID": 242, "Location": "Roads and seawall along Santander-Barili-Toledo Rd (S00409CB), K0176+500, Brgy. Sta Filomena, Alegria, Cebu", "Event": "Odette", "Date": "December 16, 2021", "DMGCost": "15,000,000.00", "Latitude": 9.765842, "Longitude": 123.345355, "DEO": "Cebu 7th DEO", "Descriptio": "Road slip and damaged seawall" }, "geometry": { "type": "Point", "coordinates": [ 123.345355, 9.765842 ] } },
{ "type": "Feature", "properties": { "NewID": 243, "Location": "Roads and seawall along Santander-Barili-Toledo Rd (S00409CB), K0178+500 - K0180+000, Intermittent sections, Brgy. Madridejos, Alegria, Cebu (9.77394, 123.34489 - 9.78648, 123.34484) START", "Event": "Odette", "Date": "December 16, 2021", "DMGCost": "225,000,000 (summed with another point)", "Latitude": 9.77394, "Longitude": 123.34489, "DEO": "Cebu 7th DEO", "Descriptio": "Road cut; partial collapse to total collapse of pavement at intermittent sections; damaged/washed out seawall from strong waves; fallen trees, electric posts and other debris" }, "geometry": { "type": "Point", "coordinates": [ 123.34489, 9.77394 ] } },
{ "type": "Feature", "properties": { "NewID": 244, "Location": "Roads and seawall along Santander-Barili-Toledo Rd (S00409CB), K0178+500 - K0180+000, Intermittent sections, Brgy. Madridejos, Alegria, Cebu (9.77394, 123.34489 - 9.78648, 123.34484) END", "Event": "Odette", "Date": "December 16, 2021", "DMGCost": "225,000,000 (summed with another point)", "Latitude": 9.78648, "Longitude": 123.34484, "DEO": "Cebu 7th DEO", "Descriptio": "Road cut; partial collapse to total collapse of pavement at intermittent sections; damaged/washed out seawall from strong waves; fallen trees, electric posts and other debris" }, "geometry": { "type": "Point", "coordinates": [ 123.34484, 9.78648 ] } },
{ "type": "Feature", "properties": { "NewID": 245, "Location": "Roads and seawall along Santander-Barili-Toledo Rd (S00409CB), K0184+300, Brgy. Matutinao, Badian, Cebu", "Event": "Odette", "Date": "December 16, 2021", "DMGCost": "9,000,000.00", "Latitude": 9.813225, "Longitude": 123.36895, "DEO": "Cebu 7th DEO", "Descriptio": "Road slip and damaged seawall" }, "geometry": { "type": "Point", "coordinates": [ 123.36895, 9.813225 ] } },
{ "type": "Feature", "properties": { "NewID": 246, "Location": "Roads and seawall along Santander-Barili-Toledo Rd (S00409CB), K0186+800, Brgy. Malabago, Badian, Cebu", "Event": "Odette", "Date": "December 16, 2021", "DMGCost": "9,000,000.00", "Latitude": 9.829143, "Longitude": 123.37171, "DEO": "Cebu 7th DEO", "Descriptio": "Road slip and damaged seawall" }, "geometry": { "type": "Point", "coordinates": [ 123.37171, 9.829143 ] } },
{ "type": "Feature", "properties": { "NewID": 247, "Location": "Brgy. Central, Cateel, Davao Oriental (7.79705786N, 126.45374086E)", "Event": "Shearline and Trough of Low-Pressure Area", "Date": "January 2024", "DMGCost": "10,000,000.00", "Latitude": 7.79705786, "Longitude": 126.4537409, "DEO": "Davao Oriental 1st DEO", "Descriptio": null }, "geometry": { "type": "Point", "coordinates": [ 126.4537409, 7.79705786 ] } },
{ "type": "Feature", "properties": { "NewID": 248, "Location": "Brgy. Central, Tarragona, Davao Oriental (7.028718N, 126.448014E)", "Event": "Shearline and Trough of Low-Pressure Area", "Date": "January 2024", "DMGCost": "17,000,000.00", "Latitude": 7.028718, "Longitude": 126.448014, "DEO": "Davao Oriental 1st DEO", "Descriptio": null }, "geometry": { "type": "Point", "coordinates": [ 126.448014, 7.028718 ] } },
{ "type": "Feature", "properties": { "NewID": 249, "Location": "Brgy. Mahan-ub, Baganga, Davao Oriental (7.577552N, 126.556476E)", "Event": "Shearline and Trough of Low-Pressure Area", "Date": "January 2024", "DMGCost": "4,000,000.00", "Latitude": 7.577552, "Longitude": 126.556476, "DEO": "Davao Oriental 1st DEO", "Descriptio": null }, "geometry": { "type": "Point", "coordinates": [ 126.556476, 7.577552 ] } },
{ "type": "Feature", "properties": { "NewID": 250, "Location": "Davao City Diversion Road, K1512+400- K1512+420, RS, Davao City (7.073611, 125.573333)", "Event": "Shearline", "Date": "February 20, 2026", "DMGCost": "1,000,000.00", "Latitude": 7.073611, "Longitude": 125.573333, "DEO": "Davao City DEO", "Descriptio": "Damaged due Shearline" }, "geometry": { "type": "Point", "coordinates": [ 125.573333, 7.073611 ] } },
{ "type": "Feature", "properties": { "NewID": 251, "Location": "Davao River, Bgry. 1-a, Davao City (7.062738, 125.606372)", "Event": "Shearline", "Date": "December 2023", "DMGCost": "3,469,335.50", "Latitude": 7.062738, "Longitude": 125.606372, "DEO": "Davao City DEO", "Descriptio": "Damaged due to continuous rain/ shearline December 2023, aggravated by heavy rainfall due to shear line and intertropical convergence zone." }, "geometry": { "type": "Point", "coordinates": [ 125.606372, 7.062738 ] } },
{ "type": "Feature", "properties": { "NewID": 252, "Location": "F. Torres Bridge, Upstream Section, Davao River, Brgy. 9-A, Davao City (7.084804, 125.591999)", "Event": "Shearline", "Date": "December 2023", "DMGCost": "3,001,862.69", "Latitude": 7.084804, "Longitude": 125.591999, "DEO": "Davao City DEO", "Descriptio": "Damaged due to continuous rain/ shearline December 2023, aggravated by heavy rainfall due to shear line and intertropical convergence zone." }, "geometry": { "type": "Point", "coordinates": [ 125.591999, 7.084804 ] } },
{ "type": "Feature", "properties": { "NewID": 253, "Location": "Davao River (Crocodile Park Section), Right Bank, Davao City (7.102248, 125.601253)", "Event": "Shearline", "Date": "December 2023", "DMGCost": "5,910,456.81", "Latitude": 7.102248, "Longitude": 125.601253, "DEO": "Davao City DEO", "Descriptio": "Damaged due to continuous rain/ shearline December 2023, aggravated by heavy rainfall due to shear line and intertropical convergence zone." }, "geometry": { "type": "Point", "coordinates": [ 125.601253, 7.102248 ] } },
{ "type": "Feature", "properties": { "NewID": 254, "Location": "Awhag Section, Davao River, Brgy. 19-B, Davao City (7.090617, 125.602334)", "Event": "Shearline", "Date": "December 2023", "DMGCost": "3,638,993.72", "Latitude": 7.090617, "Longitude": 125.602334, "DEO": "Davao City DEO", "Descriptio": "Damaged due to continuous rain/ shearline December 2023, aggravated by heavy rainfall due to shear line and intertropical convergence zone." }, "geometry": { "type": "Point", "coordinates": [ 125.602334, 7.090617 ] } },
{ "type": "Feature", "properties": { "NewID": 255, "Location": "Bacaca Section, Davao River, Brgy. 19-B, Davao City (7.093755, 125.595896)", "Event": "Shearline", "Date": "December 2023", "DMGCost": "952,990.49", "Latitude": 7.093755, "Longitude": 125.595896, "DEO": "Davao City DEO", "Descriptio": "Damaged due to continuous rain/ shearline December 2023, aggravated by heavy rainfall due to shear line and intertropical convergence zone." }, "geometry": { "type": "Point", "coordinates": [ 125.595896, 7.093755 ] } },
{ "type": "Feature", "properties": { "NewID": 256, "Location": "San Antonio Subdivision, Davao River, Brgy. 19-B, Davao City (7.097011, 125.600486)", "Event": "Shearline", "Date": "December 2023", "DMGCost": "1,889,364.92", "Latitude": 7.097011, "Longitude": 125.600486, "DEO": "Davao City DEO", "Descriptio": "Damaged due to continuous rain/ shearline December 2023, aggravated by heavy rainfall due to shear line and intertropical convergence zone." }, "geometry": { "type": "Point", "coordinates": [ 125.600486, 7.097011 ] } },
{ "type": "Feature", "properties": { "NewID": 257, "Location": "Bago River, Bago Aplaya Section, Davao City (7.047786, 125.524686)", "Event": "Shearline", "Date": "December 2023", "DMGCost": "4,379,773.23", "Latitude": 7.047786, "Longitude": 125.524686, "DEO": "Davao City DEO", "Descriptio": "Damaged due to continuous rain/ shearline December 2023, aggravated by heavy rainfall due to shear line and intertropical convergence zone." }, "geometry": { "type": "Point", "coordinates": [ 125.524686, 7.047786 ] } },
{ "type": "Feature", "properties": { "NewID": 258, "Location": "F. Torres Bridge, Downstream Section, Davao River, Brgy. 9-A, Davao City (7.077716, 125.593667)", "Event": "Shearline", "Date": "December 2023", "DMGCost": "4,480,763.98", "Latitude": 7.077716, "Longitude": 125.593667, "DEO": "Davao City DEO", "Descriptio": "Damaged due to continuous rain/ shearline December 2023, aggravated by heavy rainfall due to shear line and intertropical convergence zone." }, "geometry": { "type": "Point", "coordinates": [ 125.593667, 7.077716 ] } },
{ "type": "Feature", "properties": { "NewID": 259, "Location": "Davao River, Bgry. 1-A, Site 1, Davao City (7.061067, 125.606281)", "Event": "Shearline", "Date": "December 2023", "DMGCost": "4,102,612.99", "Latitude": 7.061067, "Longitude": 125.606281, "DEO": "Davao City DEO", "Descriptio": "Damaged due to continuous rain/ shearline December 2023, aggravated by heavy rainfall due to shear line and intertropical convergence zone." }, "geometry": { "type": "Point", "coordinates": [ 125.606281, 7.061067 ] } },
{ "type": "Feature", "properties": { "NewID": 260, "Location": "Brgy. Poblacion (Rizal), Basilisa, Dinagat Islands", "Event": "Odette", "Date": "December 16, 2021", "DMGCost": "9,250,000", "Latitude": 9.9985142751599998, "Longitude": 125.51035336, "DEO": "Dinagat Islands DEO", "Descriptio": null }, "geometry": { "type": "Point", "coordinates": [ 125.510353359811091, 9.998514275161156 ] } },
{ "type": "Feature", "properties": { "NewID": 261, "Location": "Brgy. Imee, Basilisa, Dinagat Islands", "Event": "Odette", "Date": "December 16, 2021", "DMGCost": "10,000,000", "Latitude": 10.001089608, "Longitude": 125.509373689, "DEO": "Dinagat Islands DEO", "Descriptio": null }, "geometry": { "type": "Point", "coordinates": [ 125.509373689000086, 10.001089608000029 ] } },
{ "type": "Feature", "properties": { "NewID": 262, "Location": "Brgy. Roxas, Basilisa, Dinagat Islands", "Event": "Odette", "Date": "December 16, 2021", "DMGCost": "19,750,000", "Latitude": 10.011513293, "Longitude": 125.503253578, "DEO": "Dinagat Islands DEO", "Descriptio": null }, "geometry": { "type": "Point", "coordinates": [ 125.503253578000113, 10.011513293000064 ] } },
{ "type": "Feature", "properties": { "NewID": 263, "Location": "Brgy. Columbos, Basilisa, Dinagat Islands", "Event": "Odette", "Date": "December 16, 2021", "DMGCost": "19,250,000", "Latitude": 10.012590847, "Longitude": 125.512656034, "DEO": "Dinagat Islands DEO", "Descriptio": null }, "geometry": { "type": "Point", "coordinates": [ 125.512656034000088, 10.01259084700007 ] } },
{ "type": "Feature", "properties": { "NewID": 264, "Location": "Brgy. Coring, Basilisa, Dinagat Islands", "Event": "Odette", "Date": "December 16, 2021", "DMGCost": "8,500,000", "Latitude": 10.0074714639, "Longitude": 125.516634633, "DEO": "Dinagat Islands DEO", "Descriptio": null }, "geometry": { "type": "Point", "coordinates": [ 125.516634633111693, 10.007471463871898 ] } },
{ "type": "Feature", "properties": { "NewID": 265, "Location": "Brgy. Melgar, Basilisa, Dinagat Islands", "Event": "Odette", "Date": "December 16, 2021", "DMGCost": "13,000,000", "Latitude": 10.064011732499999, "Longitude": 125.528518847, "DEO": "Dinagat Islands DEO", "Descriptio": null }, "geometry": { "type": "Point", "coordinates": [ 125.528518846852322, 10.06401173245772 ] } },
{ "type": "Feature", "properties": { "NewID": 266, "Location": "Brgy. Cortes, Basilisa, Dinagat Islands", "Event": "Odette", "Date": "December 16, 2021", "DMGCost": "4,000,000", "Latitude": 10.073253948, "Longitude": 125.537875755, "DEO": "Dinagat Islands DEO", "Descriptio": null }, "geometry": { "type": "Point", "coordinates": [ 125.537875755000073, 10.073253948000058 ] } },
{ "type": "Feature", "properties": { "NewID": 267, "Location": "Brgy. Navarro, Basilisa, Dinagat Islands", "Event": "Odette", "Date": "December 16, 2021", "DMGCost": "7,000,000", "Latitude": 10.071710345, "Longitude": 125.561472163, "DEO": "Dinagat Islands DEO", "Descriptio": null }, "geometry": { "type": "Point", "coordinates": [ 125.561472163000076, 10.071710345000042 ] } },
{ "type": "Feature", "properties": { "NewID": 268, "Location": "Brgy. Cab-ilan, Dinagat, Dinagat Islands", "Event": "Odette", "Date": "December 16, 2021", "DMGCost": "17,500,000", "Latitude": 9.94829121215, "Longitude": 125.548177772, "DEO": "Dinagat Islands DEO", "Descriptio": null }, "geometry": { "type": "Point", "coordinates": [ 125.548177772460619, 9.948291212147934 ] } },
{ "type": "Feature", "properties": { "NewID": 269, "Location": "Brgy. Cabayawan, Dinagat, Dinagat Islands", "Event": "Odette", "Date": "December 16, 2021", "DMGCost": "7,250,000", "Latitude": 9.963177883, "Longitude": 125.557791407, "DEO": "Dinagat Islands DEO", "Descriptio": null }, "geometry": { "type": "Point", "coordinates": [ 125.557791407000082, 9.963177883000071 ] } },
{ "type": "Feature", "properties": { "NewID": 270, "Location": "Brgy. Plaridel, Libjo, Dinagat Islands", "Event": "Odette", "Date": "December 16, 2021", "DMGCost": "7,500,000", "Latitude": 10.132353169, "Longitude": 125.49798883699999, "DEO": "Dinagat Islands DEO", "Descriptio": null }, "geometry": { "type": "Point", "coordinates": [ 125.49798883748133, 10.132353168969441 ] } },
{ "type": "Feature", "properties": { "NewID": 271, "Location": "Brgy. Magsaysay, Libjo, Dinagat Islands", "Event": "Odette", "Date": "December 16, 2021", "DMGCost": "17,000,000", "Latitude": 10.167156609, "Longitude": 125.500844554, "DEO": "Dinagat Islands DEO", "Descriptio": null }, "geometry": { "type": "Point", "coordinates": [ 125.500844554444882, 10.167156609049352 ] } },
{ "type": "Feature", "properties": { "NewID": 272, "Location": "Brgy. San Vicente, Tubajon, Dinagat Islands", "Event": "Odette", "Date": "December 16, 2021", "DMGCost": "13,250,000", "Latitude": 10.3294051534, "Longitude": 125.55604061, "DEO": "Dinagat Islands DEO", "Descriptio": null }, "geometry": { "type": "Point", "coordinates": [ 125.556040609864056, 10.329405153436094 ] } },
{ "type": "Feature", "properties": { "NewID": 273, "Location": "Brgy. Poblacion 1, Burgos, Surigao del Norte", "Event": "Odette", "Date": "December 16, 2021", "DMGCost": "130,000,000 (summed with 3 other points)", "Latitude": 10.0212923607, "Longitude": 126.07119197900001, "DEO": "Surigao del Norte 1st DEO", "Descriptio": null }, "geometry": { "type": "Point", "coordinates": [ 126.071191978581027, 10.021292360652735 ] } },
{ "type": "Feature", "properties": { "NewID": 274, "Location": "Brgy. Poblacion 2, Burgos, Surigao del Norte", "Event": "Odette", "Date": "December 16, 2021", "DMGCost": "130,000,000 (summed with 3 other points)", "Latitude": 10.0177930536, "Longitude": 126.07506866200001, "DEO": "Surigao del Norte 1st DEO", "Descriptio": null }, "geometry": { "type": "Point", "coordinates": [ 126.075068661920383, 10.017793053567653 ] } },
{ "type": "Feature", "properties": { "NewID": 275, "Location": "Burgos, Surigao del Norte (Sta. 0+000 - Sta. 350)", "Event": "Odette", "Date": "December 16, 2021", "DMGCost": "130,000,000 (summed with 3 other points)", "Latitude": 10.023522311200001, "Longitude": 126.068876261, "DEO": "Surigao del Norte 1st DEO", "Descriptio": null }, "geometry": { "type": "Point", "coordinates": [ 126.068876260657078, 10.02352231124617 ] } },
{ "type": "Feature", "properties": { "NewID": 276, "Location": "Brgy. Bitaug, Burgos, Surigao del Norte", "Event": "Odette", "Date": "December 16, 2021", "DMGCost": "130,000,000 (summed with 3 other points)", "Latitude": 10.031066145300001, "Longitude": 126.07024600299999, "DEO": "Surigao del Norte 1st DEO", "Descriptio": null }, "geometry": { "type": "Point", "coordinates": [ 126.070246002817782, 10.031066145262722 ] } },
{ "type": "Feature", "properties": { "NewID": 277, "Location": "Brgy. Dagohoy, Dapa, Surigao del Norte", "Event": "Odette", "Date": "December 16, 2021", "DMGCost": "5,000,000", "Latitude": 9.7075510988399998, "Longitude": 126.0605601, "DEO": "Surigao del Norte 1st DEO", "Descriptio": null }, "geometry": { "type": "Point", "coordinates": [ 126.060560100249631, 9.707551098844281 ] } },
{ "type": "Feature", "properties": { "NewID": 278, "Location": "Brgy. Sabang, Surigao del Norte", "Event": "Shearline", "Date": "February 1, 2023", "DMGCost": "100,000,000", "Latitude": 9.7979193692899997, "Longitude": 125.471813571, "DEO": "Surigao del Norte 2nd DEO", "Descriptio": null }, "geometry": { "type": "Point", "coordinates": [ 125.471813571441402, 9.797919369289721 ] } },
{ "type": "Feature", "properties": { "NewID": 279, "Location": "Brgy. Alambique, Gigaguit, Surigao del Norte", "Event": "Kabayan", "Date": "December 18, 2023", "DMGCost": "148,000,000 (summed with 1 other point)", "Latitude": 9.59714801314, "Longitude": 125.695951788, "DEO": "Surigao del Norte 2nd DEO", "Descriptio": null }, "geometry": { "type": "Point", "coordinates": [ 125.695951788080606, 9.59714801314078 ] } },
{ "type": "Feature", "properties": { "NewID": 280, "Location": "Brgy. Ipil, Gigaguit, Surigao del Norte", "Event": "Kabayan", "Date": "December 18, 2023", "DMGCost": "148,000,000 (summed with 1 other point)", "Latitude": 9.5951919934600003, "Longitude": 125.698431904, "DEO": "Surigao del Norte 2nd DEO", "Descriptio": null }, "geometry": { "type": "Point", "coordinates": [ 125.698431903944694, 9.59519199346486 ] } },
{ "type": "Feature", "properties": { "NewID": 281, "Location": "Purok 1, Brgy. Comawas, Bislig City, Surigao del Sur (Seawall)", "Event": "Vicky", "Date": "December 19, 2020", "DMGCost": "10,376,000", "Latitude": 8.1845436286699993, "Longitude": 126.339577292, "DEO": "Surigao del Sur 2nd DEO", "Descriptio": null }, "geometry": { "type": "Point", "coordinates": [ 126.339577292279998, 8.18454362866702 ] } },
{ "type": "Feature", "properties": { "NewID": 282, "Location": "Purok 3, Brgy. Comawas, Bislig City, Surigao del Sur (Seawall)", "Event": "Vicky", "Date": "December 19, 2020", "DMGCost": "324,000", "Latitude": 8.1886798940900025, "Longitude": 126.335767171, "DEO": "Surigao del Sur 2nd DEO", "Descriptio": null }, "geometry": { "type": "Point", "coordinates": [ 126.335767170829769, 8.188679894089809 ] } },
{ "type": "Feature", "properties": { "NewID": 283, "Location": "Brgy. Poblacion, Lingig, Surigao del Sur, 8.0032881N 126.414006E (Seawall)", "Event": "Basyang", "Date": "February 6, 2026", "DMGCost": "5,000,000", "Latitude": 8.031381158, "Longitude": 126.413917932, "DEO": "Surigao del Sur 2nd DEO", "Descriptio": null }, "geometry": { "type": "Point", "coordinates": [ 126.413917932013035, 8.031381158000965 ] } },
{ "type": "Feature", "properties": { "NewID": 284, "Location": "Brgy. Bongan, Lingig, Surigao del Sur (Seawall)", "Event": "Basyang", "Date": "February 6, 2026", "DMGCost": "20,000,000", "Latitude": 8.2016154342099998, "Longitude": 126.439569874, "DEO": "Surigao del Sur 2nd DEO", "Descriptio": null }, "geometry": { "type": "Point", "coordinates": [ 126.439569874192415, 8.201615434205825 ] } },
{ "type": "Feature", "properties": { "NewID": 285, "Location": "Brgy. Tiwi, Hinatuan, Surigao del Sur (Housing)", "Event": "Basyang", "Date": "February 6, 2026", "DMGCost": "30,000", "Latitude": 8.4055039897700023, "Longitude": 126.35073879, "DEO": "Surigao del Sur 2nd DEO", "Descriptio": null }, "geometry": { "type": "Point", "coordinates": [ 126.350738790090958, 8.405503989771049 ] } },
{ "type": "Feature", "properties": { "NewID": 286, "Location": "Sitio Danipas, Brgy. Labisma, Bislig City, Surigao del Sur (Housing)", "Event": "Shearline", "Date": "February 20-21, 2026", "DMGCost": "5,000,000", "Latitude": 8.1977056587000003, "Longitude": 126.382149408, "DEO": "Surigao del Sur 2nd DEO", "Descriptio": null }, "geometry": { "type": "Point", "coordinates": [ 126.382149407923976, 8.197705658700814 ] } }
]
}
